<?xml version="1.0" encoding="UTF-8"?>
<ndm xmlns:xsi="http://www.w3.org/2001/XMLSchema-instance" xsi:noNamespaceSchemaLocation="https://sanaregistry.org/r/ndmxml_unqualified/ndmxml-2.0.0-master-2.0.xsd">
<omm id="CCSDS_OMM_VERS" version="2.0">
<header><CREATION_DATE/><ORIGINATOR/></header><body><segment><metadata><OBJECT_NAME>KUIPER-00035</OBJECT_NAME><OBJECT_ID>2025-088AA</OBJECT_ID><CENTER_NAME>EARTH</CENTER_NAME><REF_FRAME>TEME</REF_FRAME><TIME_SYSTEM>UTC</TIME_SYSTEM><MEAN_ELEMENT_THEORY>SGP4</MEAN_ELEMENT_THEORY></metadata><data><meanElements><EPOCH>2025-07-29T06:00:02.000160</EPOCH><MEAN_MOTION>15.04847920</MEAN_MOTION><ECCENTRICITY>.00038</ECCENTRICITY><INCLINATION>51.8853</INCLINATION><RA_OF_ASC_NODE>23.6861</RA_OF_ASC_NODE><ARG_OF_PERICENTER>70.3975</ARG_OF_PERICENTER><MEAN_ANOMALY>161.3170</MEAN_ANOMALY></meanElements><tleParameters><EPHEMERIS_TYPE>0</EPHEMERIS_TYPE><CLASSIFICATION_TYPE>U</CLASSIFICATION_TYPE><NORAD_CAT_ID>63748</NORAD_CAT_ID><ELEMENT_SET_NO>999</ELEMENT_SET_NO><REV_AT_EPOCH>1439</REV_AT_EPOCH><BSTAR>-.96959E-1</BSTAR><MEAN_MOTION_DOT>-.1280916E-1</MEAN_MOTION_DOT><MEAN_MOTION_DDOT>0</MEAN_MOTION_DDOT></tleParameters></data></segment></body></omm>
<omm id="CCSDS_OMM_VERS" version="2.0">
<header><CREATION_DATE/><ORIGINATOR/></header><body><segment><metadata><OBJECT_NAME>KUIPER-00037</OBJECT_NAME><OBJECT_ID>2025-088AB</OBJECT_ID><CENTER_NAME>EARTH</CENTER_NAME><REF_FRAME>TEME</REF_FRAME><TIME_SYSTEM>UTC</TIME_SYSTEM><MEAN_ELEMENT_THEORY>SGP4</MEAN_ELEMENT_THEORY></metadata><data><meanElements><EPOCH>2025-07-29T06:00:02.000160</EPOCH><MEAN_MOTION>15.06543223</MEAN_MOTION><ECCENTRICITY>.0004108</ECCENTRICITY><INCLINATION>51.8884</INCLINATION><RA_OF_ASC_NODE>23.0207</RA_OF_ASC_NODE><ARG_OF_PERICENTER>3.8427</ARG_OF_PERICENTER><MEAN_ANOMALY>112.1287</MEAN_ANOMALY></meanElements><tleParameters><EPHEMERIS_TYPE>0</EPHEMERIS_TYPE><CLASSIFICATION_TYPE>U</CLASSIFICATION_TYPE><NORAD_CAT_ID>63749</NORAD_CAT_ID><ELEMENT_SET_NO>999</ELEMENT_SET_NO><REV_AT_EPOCH>1519</REV_AT_EPOCH><BSTAR>-.6721E-1</BSTAR><MEAN_MOTION_DOT>-.92939E-2</MEAN_MOTION_DOT><MEAN_MOTION_DDOT>0</MEAN_MOTION_DDOT></tleParameters></data></segment></body></omm>
<omm id="CCSDS_OMM_VERS" version="2.0">
<header><CREATION_DATE/><ORIGINATOR/></header><body><segment><metadata><OBJECT_NAME>KUIPER-00038</OBJECT_NAME><OBJECT_ID>2025-088AC</OBJECT_ID><CENTER_NAME>EARTH</CENTER_NAME><REF_FRAME>TEME</REF_FRAME><TIME_SYSTEM>UTC</TIME_SYSTEM><MEAN_ELEMENT_THEORY>SGP4</MEAN_ELEMENT_THEORY></metadata><data><meanElements><EPOCH>2025-07-29T04:39:52.016256</EPOCH><MEAN_MOTION>15.37725807</MEAN_MOTION><ECCENTRICITY>.0004923</ECCENTRICITY><INCLINATION>51.8713</INCLINATION><RA_OF_ASC_NODE>17.0927</RA_OF_ASC_NODE><ARG_OF_PERICENTER>68.6434</ARG_OF_PERICENTER><MEAN_ANOMALY>291.5077</MEAN_ANOMALY></meanElements><tleParameters><EPHEMERIS_TYPE>0</EPHEMERIS_TYPE><CLASSIFICATION_TYPE>U</CLASSIFICATION_TYPE><NORAD_CAT_ID>63750</NORAD_CAT_ID><ELEMENT_SET_NO>999</ELEMENT_SET_NO><REV_AT_EPOCH>1427</REV_AT_EPOCH><BSTAR>-.7732E-3</BSTAR><MEAN_MOTION_DOT>-.29393E-3</MEAN_MOTION_DOT><MEAN_MOTION_DDOT>0</MEAN_MOTION_DDOT></tleParameters></data></segment></body></omm>
<omm id="CCSDS_OMM_VERS" version="2.0">
<header><CREATION_DATE/><ORIGINATOR/></header><body><segment><metadata><OBJECT_NAME>KUIPER-00039</OBJECT_NAME><OBJECT_ID>2025-134A</OBJECT_ID><CENTER_NAME>EARTH</CENTER_NAME><REF_FRAME>TEME</REF_FRAME><TIME_SYSTEM>UTC</TIME_SYSTEM><MEAN_ELEMENT_THEORY>SGP4</MEAN_ELEMENT_THEORY></metadata><data><meanElements><EPOCH>2025-07-28T11:38:26.372544</EPOCH><MEAN_MOTION>15.35054995</MEAN_MOTION><ECCENTRICITY>.0007192</ECCENTRICITY><INCLINATION>51.8674</INCLINATION><RA_OF_ASC_NODE>162.2381</RA_OF_ASC_NODE><ARG_OF_PERICENTER>242.0184</ARG_OF_PERICENTER><MEAN_ANOMALY>118.0074</MEAN_ANOMALY></meanElements><tleParameters><EPHEMERIS_TYPE>0</EPHEMERIS_TYPE><CLASSIFICATION_TYPE>U</CLASSIFICATION_TYPE><NORAD_CAT_ID>64500</NORAD_CAT_ID><ELEMENT_SET_NO>999</ELEMENT_SET_NO><REV_AT_EPOCH>662</REV_AT_EPOCH><BSTAR>.66422E-3</BSTAR><MEAN_MOTION_DOT>.2264E-3</MEAN_MOTION_DOT><MEAN_MOTION_DDOT>0</MEAN_MOTION_DDOT></tleParameters></data></segment></body></omm>
<omm id="CCSDS_OMM_VERS" version="2.0">
<header><CREATION_DATE/><ORIGINATOR/></header><body><segment><metadata><OBJECT_NAME>KUIPER-00040</OBJECT_NAME><OBJECT_ID>2025-134B</OBJECT_ID><CENTER_NAME>EARTH</CENTER_NAME><REF_FRAME>TEME</REF_FRAME><TIME_SYSTEM>UTC</TIME_SYSTEM><MEAN_ELEMENT_THEORY>SGP4</MEAN_ELEMENT_THEORY></metadata><data><meanElements><EPOCH>2025-07-29T06:00:02.000160</EPOCH><MEAN_MOTION>15.20753485</MEAN_MOTION><ECCENTRICITY>.0011224</ECCENTRICITY><INCLINATION>51.8747</INCLINATION><RA_OF_ASC_NODE>159.3039</RA_OF_ASC_NODE><ARG_OF_PERICENTER>257.4654</ARG_OF_PERICENTER><MEAN_ANOMALY>2.5811</MEAN_ANOMALY></meanElements><tleParameters><EPHEMERIS_TYPE>0</EPHEMERIS_TYPE><CLASSIFICATION_TYPE>U</CLASSIFICATION_TYPE><NORAD_CAT_ID>64501</NORAD_CAT_ID><ELEMENT_SET_NO>999</ELEMENT_SET_NO><REV_AT_EPOCH>626</REV_AT_EPOCH><BSTAR>-.26138E-1</BSTAR><MEAN_MOTION_DOT>-.549268E-2</MEAN_MOTION_DOT><MEAN_MOTION_DDOT>0</MEAN_MOTION_DDOT></tleParameters></data></segment></body></omm>
<omm id="CCSDS_OMM_VERS" version="2.0">
<header><CREATION_DATE/><ORIGINATOR/></header><body><segment><metadata><OBJECT_NAME>KUIPER-00041</OBJECT_NAME><OBJECT_ID>2025-134C</OBJECT_ID><CENTER_NAME>EARTH</CENTER_NAME><REF_FRAME>TEME</REF_FRAME><TIME_SYSTEM>UTC</TIME_SYSTEM><MEAN_ELEMENT_THEORY>SGP4</MEAN_ELEMENT_THEORY></metadata><data><meanElements><EPOCH>2025-07-29T06:00:02.000160</EPOCH><MEAN_MOTION>15.17400545</MEAN_MOTION><ECCENTRICITY>.0008294</ECCENTRICITY><INCLINATION>51.8746</INCLINATION><RA_OF_ASC_NODE>159.5807</RA_OF_ASC_NODE><ARG_OF_PERICENTER>247.0964</ARG_OF_PERICENTER><MEAN_ANOMALY>200.9529</MEAN_ANOMALY></meanElements><tleParameters><EPHEMERIS_TYPE>0</EPHEMERIS_TYPE><CLASSIFICATION_TYPE>U</CLASSIFICATION_TYPE><NORAD_CAT_ID>64502</NORAD_CAT_ID><ELEMENT_SET_NO>999</ELEMENT_SET_NO><REV_AT_EPOCH>626</REV_AT_EPOCH><BSTAR>-.14936E-1</BSTAR><MEAN_MOTION_DOT>-.291276E-2</MEAN_MOTION_DOT><MEAN_MOTION_DDOT>0</MEAN_MOTION_DDOT></tleParameters></data></segment></body></omm>
<omm id="CCSDS_OMM_VERS" version="2.0">
<header><CREATION_DATE/><ORIGINATOR/></header><body><segment><metadata><OBJECT_NAME>KUIPER-00042</OBJECT_NAME><OBJECT_ID>2025-134D</OBJECT_ID><CENTER_NAME>EARTH</CENTER_NAME><REF_FRAME>TEME</REF_FRAME><TIME_SYSTEM>UTC</TIME_SYSTEM><MEAN_ELEMENT_THEORY>SGP4</MEAN_ELEMENT_THEORY></metadata><data><meanElements><EPOCH>2025-07-29T06:00:02.000160</EPOCH><MEAN_MOTION>15.28915402</MEAN_MOTION><ECCENTRICITY>.0008569</ECCENTRICITY><INCLINATION>51.8677</INCLINATION><RA_OF_ASC_NODE>158.7549</RA_OF_ASC_NODE><ARG_OF_PERICENTER>247.9353</ARG_OF_PERICENTER><MEAN_ANOMALY>280.8155</MEAN_ANOMALY></meanElements><tleParameters><EPHEMERIS_TYPE>0</EPHEMERIS_TYPE><CLASSIFICATION_TYPE>U</CLASSIFICATION_TYPE><NORAD_CAT_ID>64503</NORAD_CAT_ID><ELEMENT_SET_NO>999</ELEMENT_SET_NO><REV_AT_EPOCH>627</REV_AT_EPOCH><BSTAR>-.12467E-1</BSTAR><MEAN_MOTION_DOT>-.340386E-2</MEAN_MOTION_DOT><MEAN_MOTION_DDOT>0</MEAN_MOTION_DDOT></tleParameters></data></segment></body></omm>
<omm id="CCSDS_OMM_VERS" version="2.0">
<header><CREATION_DATE/><ORIGINATOR/></header><body><segment><metadata><OBJECT_NAME>KUIPER-00043</OBJECT_NAME><OBJECT_ID>2025-134E</OBJECT_ID><CENTER_NAME>EARTH</CENTER_NAME><REF_FRAME>TEME</REF_FRAME><TIME_SYSTEM>UTC</TIME_SYSTEM><MEAN_ELEMENT_THEORY>SGP4</MEAN_ELEMENT_THEORY></metadata><data><meanElements><EPOCH>2025-07-29T03:18:57.163104</EPOCH><MEAN_MOTION>15.34929005</MEAN_MOTION><ECCENTRICITY>.0007706</ECCENTRICITY><INCLINATION>51.8686</INCLINATION><RA_OF_ASC_NODE>159.1171</RA_OF_ASC_NODE><ARG_OF_PERICENTER>233.8257</ARG_OF_PERICENTER><MEAN_ANOMALY>126.2016</MEAN_ANOMALY></meanElements><tleParameters><EPHEMERIS_TYPE>0</EPHEMERIS_TYPE><CLASSIFICATION_TYPE>U</CLASSIFICATION_TYPE><NORAD_CAT_ID>64504</NORAD_CAT_ID><ELEMENT_SET_NO>999</ELEMENT_SET_NO><REV_AT_EPOCH>664</REV_AT_EPOCH><BSTAR>.9541E-3</BSTAR><MEAN_MOTION_DOT>.32603E-3</MEAN_MOTION_DOT><MEAN_MOTION_DDOT>0</MEAN_MOTION_DDOT></tleParameters></data></segment></body></omm>

</ndm>
