KUIPER-00035            
1 63748U 25088AA  25210.25002315 -.01280916  00000+0 -96959-1 0  9996
2 63748  51.8853  23.6861 0003800  70.3975 161.3170 15.04847920 14394
KUIPER-00037            
1 63749U 25088AB  25210.25002315 -.00929390  00000+0 -67210-1 0  9990
2 63749  51.8884  23.0207 0004108   3.8427 112.1287 15.06543223 15195
KUIPER-00038            
1 63750U 25088AC  25210.19435204 -.00029393  00000+0 -77320-3 0  9991
2 63750  51.8713  17.0927 0004923  68.6434 291.5077 15.37725807 14273
KUIPER-00039            
1 64500U 25134A   25209.48502746  .00022640  00000+0  66422-3 0  9990
2 64500  51.8674 162.2381 0007192 242.0184 118.0074 15.35054995  6622
KUIPER-00040            
1 64501U 25134B   25210.25002315 -.00549268  00000+0 -26138-1 0  9995
2 64501  51.8747 159.3039 0011224 257.4654   2.5811 15.20753485  6264
KUIPER-00041            
1 64502U 25134C   25210.25002315 -.00291276  00000+0 -14936-1 0  9992
2 64502  51.8746 159.5807 0008294 247.0964 200.9529 15.17400545  6263
KUIPER-00042            
1 64503U 25134D   25210.25002315 -.00340386  00000+0 -12467-1 0  9997
2 64503  51.8677 158.7549 0008569 247.9353 280.8155 15.28915402  6275
KUIPER-00043            
1 64504U 25134E   25210.13816161  .00032603  00000+0  95410-3 0  9996
2 64504  51.8686 159.1171 0007706 233.8257 126.2016 15.34929005  6642
